STARLINK-35692          
1 66513U 25263AE  26068.14409341  .00028183  00000+0  10285-2 0  9996
2 66513  43.0000 353.9242 0000937 256.6074 103.4673 15.27618533 18810
2025-313BE              
1 67482U 25313BE  26068.69721505  .00077178  00000+0  26504-2 0  9996
2 67482  97.3989 145.3568 0007208 335.3714  24.7181 15.29801687  7972
